[
  {
    "COMMENT": "GENERATED VIA SPACETRACK.ORG API",
    "ORIGINATOR": "18 SPCS",
    "NORAD_CAT_ID": "27421",
    "OBJECT_NAME": "SPOT 5",
    "OBJECT_TYPE": "PAYLOAD",
    "CLASSIFICATION_TYPE": "U",
    "INTLDES": "02021A",
    "EPOCH": "2023-06-19 10:38:29",
    "EPOCH_MICROSECONDS": "903424",
    "MEAN_MOTION": "14.52657581",
    "ECCENTRICITY": "0.0135116",
    "INCLINATION": "98.1393",
    "RA_OF_ASC_NODE": "233.3798",
    "ARG_OF_PERICENTER": "67.1605",
    "MEAN_ANOMALY": "294.3795",
    "EPHEMERIS_TYPE": "0",
    "ELEMENT_SET_NO": "999",
    "REV_AT_EPOCH": "10393",
    "BSTAR": "0.00011239",
    "MEAN_MOTION_DOT": "0.0000047",
    "MEAN_MOTION_DDOT": "0",
    "FILE": "3937338",
    "TLE_LINE0": "0 SPOT 5",
    "TLE_LINE1": "1 27421U 02021A   23170.44340166  .00000470  00000-0  11239-3 0  9992",
    "TLE_LINE2": "2 27421  98.1393 233.3798 0135116  67.1605 294.3795 14.52657581103937",
    "OBJECT_ID": "2002-021A",
    "OBJECT_NUMBER": "27421",
    "SEMIMAJOR_AXIS": "7095.119",
    "PERIOD": "99.129",
    "APOGEE": "812.850",
    "PERIGEE": "621.117",
    "DECAYED": "0"
  },
  {
    "COMMENT": "GENERATED VIA SPACETRACK.ORG API",
    "ORIGINATOR": "18 SPCS",
    "NORAD_CAT_ID": "27421",
    "OBJECT_NAME": "SPOT 5",
    "OBJECT_TYPE": "PAYLOAD",
    "CLASSIFICATION_TYPE": "U",
    "INTLDES": "02021A",
    "EPOCH": "2023-06-19 18:54:25",
    "EPOCH_MICROSECONDS": "860384",
    "MEAN_MOTION": "14.5265809",
    "ECCENTRICITY": "0.0135101",
    "INCLINATION": "98.1393",
    "RA_OF_ASC_NODE": "233.7141",
    "ARG_OF_PERICENTER": "66.1048",
    "MEAN_ANOMALY": "295.4236",
    "EPHEMERIS_TYPE": "0",
    "ELEMENT_SET_NO": "999",
    "REV_AT_EPOCH": "10398",
    "BSTAR": "0.00011542",
    "MEAN_MOTION_DOT": "0.00000484",
    "MEAN_MOTION_DDOT": "0",
    "FILE": "3937509",
    "TLE_LINE0": "0 SPOT 5",
    "TLE_LINE1": "1 27421U 02021A   23170.78779931  .00000484  00000-0  11542-3 0  9997",
    "TLE_LINE2": "2 27421  98.1393 233.7141 0135101  66.1048 295.4236 14.52658090103980",
    "OBJECT_ID": "2002-021A",
    "OBJECT_NUMBER": "27421",
    "SEMIMAJOR_AXIS": "7095.117",
    "PERIOD": "99.129",
    "APOGEE": "812.838",
    "PERIGEE": "621.126",
    "DECAYED": "0"
  },
  {
    "COMMENT": "GENERATED VIA SPACETRACK.ORG API",
    "ORIGINATOR": "18 SPCS",
    "NORAD_CAT_ID": "27421",
    "OBJECT_NAME": "SPOT 5",
    "OBJECT_TYPE": "PAYLOAD",
    "CLASSIFICATION_TYPE": "U",
    "INTLDES": "02021A",
    "EPOCH": "2023-06-20 03:10:21",
    "EPOCH_MICROSECONDS": "802656",
    "MEAN_MOTION": "14.52658566",
    "ECCENTRICITY": "0.0135089",
    "INCLINATION": "98.1393",
    "RA_OF_ASC_NODE": "234.0484",
    "ARG_OF_PERICENTER": "65.0493",
    "MEAN_ANOMALY": "296.4669",
    "EPHEMERIS_TYPE": "0",
    "ELEMENT_SET_NO": "999",
    "REV_AT_EPOCH": "10407",
    "BSTAR": "0.00011737",
    "MEAN_MOTION_DOT": "0.00000493",
    "MEAN_MOTION_DDOT": "0",
    "FILE": "3937706",
    "TLE_LINE0": "0 SPOT 5",
    "TLE_LINE1": "1 27421U 02021A   23171.13219679  .00000493  00000-0  11737-3 0  9991",
    "TLE_LINE2": "2 27421  98.1393 234.0484 0135089  65.0493 296.4669 14.52658566104071",
    "OBJECT_ID": "2002-021A",
    "OBJECT_NUMBER": "27421",
    "SEMIMAJOR_AXIS": "7095.116",
    "PERIOD": "99.129",
    "APOGEE": "812.828",
    "PERIGEE": "621.133",
    "DECAYED": "0"
  },
  {
    "COMMENT": "GENERATED VIA SPACETRACK.ORG API",
    "ORIGINATOR": "18 SPCS",
    "NORAD_CAT_ID": "27421",
    "OBJECT_NAME": "SPOT 5",
    "OBJECT_TYPE": "PAYLOAD",
    "CLASSIFICATION_TYPE": "U",
    "INTLDES": "02021A",
    "EPOCH": "2023-06-20 09:47:06",
    "EPOCH_MICROSECONDS": "544896",
    "MEAN_MOTION": "14.52658869",
    "ECCENTRICITY": "0.0135076",
    "INCLINATION": "98.1393",
    "RA_OF_ASC_NODE": "234.3159",
    "ARG_OF_PERICENTER": "64.2064",
    "MEAN_ANOMALY": "297.2997",
    "EPHEMERIS_TYPE": "0",
    "ELEMENT_SET_NO": "999",
    "REV_AT_EPOCH": "10411",
    "BSTAR": "0.00011609",
    "MEAN_MOTION_DOT": "0.00000487",
    "MEAN_MOTION_DDOT": "0",
    "FILE": "3938000",
    "TLE_LINE0": "0 SPOT 5",
    "TLE_LINE1": "1 27421U 02021A   23171.40771464  .00000487  00000-0  11609-3 0  9997",
    "TLE_LINE2": "2 27421  98.1393 234.3159 0135076  64.2064 297.2997 14.52658869104118",
    "OBJECT_ID": "2002-021A",
    "OBJECT_NUMBER": "27421",
    "SEMIMAJOR_AXIS": "7095.115",
    "PERIOD": "99.129",
    "APOGEE": "812.818",
    "PERIGEE": "621.142",
    "DECAYED": "0"
  },
  {
    "COMMENT": "GENERATED VIA SPACETRACK.ORG API",
    "ORIGINATOR": "18 SPCS",
    "NORAD_CAT_ID": "27421",
    "OBJECT_NAME": "SPOT 5",
    "OBJECT_TYPE": "PAYLOAD",
    "CLASSIFICATION_TYPE": "U",
    "INTLDES": "02021A",
    "EPOCH": "2023-06-20 09:47:06",
    "EPOCH_MICROSECONDS": "544896",
    "MEAN_MOTION": "14.52658869",
    "ECCENTRICITY": "0.0135076",
    "INCLINATION": "98.1393",
    "RA_OF_ASC_NODE": "234.3159",
    "ARG_OF_PERICENTER": "64.2064",
    "MEAN_ANOMALY": "297.2997",
    "EPHEMERIS_TYPE": "0",
    "ELEMENT_SET_NO": "999",
    "REV_AT_EPOCH": "10407",
    "BSTAR": "0.00011609",
    "MEAN_MOTION_DOT": "0.00000487",
    "MEAN_MOTION_DDOT": "0",
    "FILE": "3938135",
    "TLE_LINE0": "0 SPOT 5",
    "TLE_LINE1": "1 27421U 02021A   23171.40771464  .00000487  00000-0  11609-3 0  9997",
    "TLE_LINE2": "2 27421  98.1393 234.3159 0135076  64.2064 297.2997 14.52658869104073",
    "OBJECT_ID": "2002-021A",
    "OBJECT_NUMBER": "27421",
    "SEMIMAJOR_AXIS": "7095.115",
    "PERIOD": "99.129",
    "APOGEE": "812.818",
    "PERIGEE": "621.142",
    "DECAYED": "0"
  },
  {
    "COMMENT": "GENERATED VIA SPACETRACK.ORG API",
    "ORIGINATOR": "18 SPCS",
    "NORAD_CAT_ID": "27421",
    "OBJECT_NAME": "SPOT 5",
    "OBJECT_TYPE": "PAYLOAD",
    "CLASSIFICATION_TYPE": "U",
    "INTLDES": "02021A",
    "EPOCH": "2023-06-20 18:03:02",
    "EPOCH_MICROSECONDS": "465568",
    "MEAN_MOTION": "14.52659237",
    "ECCENTRICITY": "0.0135059",
    "INCLINATION": "98.1393",
    "RA_OF_ASC_NODE": "234.6502",
    "ARG_OF_PERICENTER": "63.1509",
    "MEAN_ANOMALY": "298.3422",
    "EPHEMERIS_TYPE": "0",
    "ELEMENT_SET_NO": "999",
    "REV_AT_EPOCH": "10416",
    "BSTAR": "0.00011453",
    "MEAN_MOTION_DOT": "0.0000048",
    "MEAN_MOTION_DDOT": "0",
    "FILE": "3938380",
    "TLE_LINE0": "0 SPOT 5",
    "TLE_LINE1": "1 27421U 02021A   23171.75211187  .00000480  00000-0  11453-3 0  9996",
    "TLE_LINE2": "2 27421  98.1393 234.6502 0135059  63.1509 298.3422 14.52659237104166",
    "OBJECT_ID": "2002-021A",
    "OBJECT_NUMBER": "27421",
    "SEMIMAJOR_AXIS": "7095.113",
    "PERIOD": "99.129",
    "APOGEE": "812.804",
    "PERIGEE": "621.153",
    "DECAYED": "0"
  },
  {
    "COMMENT": "GENERATED VIA SPACETRACK.ORG API",
    "ORIGINATOR": "18 SPCS",
    "NORAD_CAT_ID": "27421",
    "OBJECT_NAME": "SPOT 5",
    "OBJECT_TYPE": "PAYLOAD",
    "CLASSIFICATION_TYPE": "U",
    "INTLDES": "02021A",
    "EPOCH": "2023-06-20 19:42:13",
    "EPOCH_MICROSECONDS": "642272",
    "MEAN_MOTION": "14.52659394",
    "ECCENTRICITY": "0.0135055",
    "INCLINATION": "98.1393",
    "RA_OF_ASC_NODE": "234.7171",
    "ARG_OF_PERICENTER": "62.9397",
    "MEAN_ANOMALY": "298.5507",
    "EPHEMERIS_TYPE": "0",
    "ELEMENT_SET_NO": "999",
    "REV_AT_EPOCH": "10413",
    "BSTAR": "0.00011718",
    "MEAN_MOTION_DOT": "0.00000492",
    "MEAN_MOTION_DDOT": "0",
    "FILE": "3938544",
    "TLE_LINE0": "0 SPOT 5",
    "TLE_LINE1": "1 27421U 02021A   23171.82099123  .00000492  00000-0  11718-3 0  9995",
    "TLE_LINE2": "2 27421  98.1393 234.7171 0135055  62.9397 298.5507 14.52659394104134",
    "OBJECT_ID": "2002-021A",
    "OBJECT_NUMBER": "27421",
    "SEMIMAJOR_AXIS": "7095.113",
    "PERIOD": "99.129",
    "APOGEE": "812.801",
    "PERIGEE": "621.155",
    "DECAYED": "0"
  },
  {
    "COMMENT": "GENERATED VIA SPACETRACK.ORG API",
    "ORIGINATOR": "18 SPCS",
    "NORAD_CAT_ID": "27421",
    "OBJECT_NAME": "SPOT 5",
    "OBJECT_TYPE": "PAYLOAD",
    "CLASSIFICATION_TYPE": "U",
    "INTLDES": "02021A",
    "EPOCH": "2023-06-21 02:18:58",
    "EPOCH_MICROSECONDS": "361184",
    "MEAN_MOTION": "14.52659689",
    "ECCENTRICITY": "0.0135044",
    "INCLINATION": "98.1392",
    "RA_OF_ASC_NODE": "234.9845",
    "ARG_OF_PERICENTER": "62.0963",
    "MEAN_ANOMALY": "299.3833",
    "EPHEMERIS_TYPE": "0",
    "ELEMENT_SET_NO": "999",
    "REV_AT_EPOCH": "10421",
    "BSTAR": "0.0001153",
    "MEAN_MOTION_DOT": "0.00000483",
    "MEAN_MOTION_DDOT": "0",
    "FILE": "3938628",
    "TLE_LINE0": "0 SPOT 5",
    "TLE_LINE1": "1 27421U 02021A   23172.09650881  .00000483  00000-0  11530-3 0  9991",
    "TLE_LINE2": "2 27421  98.1392 234.9845 0135044  62.0963 299.3833 14.52659689104218",
    "OBJECT_ID": "2002-021A",
    "OBJECT_NUMBER": "27421",
    "SEMIMAJOR_AXIS": "7095.112",
    "PERIOD": "99.129",
    "APOGEE": "812.792",
    "PERIGEE": "621.162",
    "DECAYED": "0"
  },
  {
    "COMMENT": "GENERATED VIA SPACETRACK.ORG API",
    "ORIGINATOR": "18 SPCS",
    "NORAD_CAT_ID": "27421",
    "OBJECT_NAME": "SPOT 5",
    "OBJECT_TYPE": "PAYLOAD",
    "CLASSIFICATION_TYPE": "U",
    "INTLDES": "02021A",
    "EPOCH": "2023-06-21 10:34:54",
    "EPOCH_MICROSECONDS": "246432",
    "MEAN_MOTION": "14.52660163",
    "ECCENTRICITY": "0.0135033",
    "INCLINATION": "98.1392",
    "RA_OF_ASC_NODE": "235.3188",
    "ARG_OF_PERICENTER": "61.0414",
    "MEAN_ANOMALY": "300.4244",
    "EPHEMERIS_TYPE": "0",
    "ELEMENT_SET_NO": "999",
    "REV_AT_EPOCH": "10426",
    "BSTAR": "0.00011787",
    "MEAN_MOTION_DOT": "0.00000495",
    "MEAN_MOTION_DDOT": "0",
    "FILE": "3938968",
    "TLE_LINE0": "0 SPOT 5",
    "TLE_LINE1": "1 27421U 02021A   23172.44090563  .00000495  00000-0  11787-3 0  9992",
    "TLE_LINE2": "2 27421  98.1392 235.3188 0135033  61.0414 300.4244 14.52660163104265",
    "OBJECT_ID": "2002-021A",
    "OBJECT_NUMBER": "27421",
    "SEMIMAJOR_AXIS": "7095.110",
    "PERIOD": "99.128",
    "APOGEE": "812.783",
    "PERIGEE": "621.168",
    "DECAYED": "0"
  }
]